IRIDIUM 166             
1 43570U 18061B   25217.17387134  .00000029  00000+0  32255-5 0  9998
2 43570  86.4006 188.7809 0002220  93.4582 266.6868 14.34217515368106
IRIDIUM 158             
1 43571U 18061C   25216.86308413  .00000021  00000+0  28223-6 0  9990
2 43571  86.4006 188.9205 0002115  84.5727 275.5710 14.34217482368034
IRIDIUM 165             
1 43572U 18061D   25216.67914943  .00000025  00000+0  18844-5 0  9992
2 43572  86.4008 189.0374 0002343  89.9796 270.1668 14.34217471368024
IRIDIUM 155             
1 43573U 18061E   25217.19924071 -.00000032  00000+0 -18563-4 0  9991
2 43573  86.4007 188.7057 0001828  88.2242 271.9163 14.34217270368074
IRIDIUM 154             
1 43574U 18061F   25217.45928760  .00000023  00000+0  12118-5 0  9999
2 43574  86.4009 188.7146 0002288  87.2448 272.9010 14.34216990368153
IRIDIUM 163             
1 43575U 18061G   25216.67280977  .00000268  00000+0  88576-4 0  9995
2 43575  86.4005 188.9683 0002238  82.7289 277.4161 14.34220379368014
IRIDIUM 156             
1 43576U 18061H   25216.85674099 -.00000083  00000+0 -36792-4 0  9998
2 43576  86.4008 188.8987 0001917  93.3033 266.8382 14.34217356368021
IRIDIUM 164             
1 43577U 18061J   25217.18655703  .00000014  00000+0 -19070-5 0  9991
2 43577  86.4011 188.7963 0002273  91.5106 268.6350 14.34217218368129
